STARLINK-30793          
1 58185U 23167L   26068.54769913 -.00001341  00000+0 -40310-4 0  9994
2 58185  43.0006 144.1729 0001528 276.0226  84.0451 15.26732639130966
BANDWAGON-4 OBJECT P    
1 66306U 25248P   26067.98083108  .00022647  00000+0  92291-3 0  9996
2 66306  45.4037 295.4322 0012078 209.3167 150.7044 15.24098352 19290
